0 THOR ABLESTAR DEB
1 00559U 61015GR  13283.07349427  .00002619  00000-0  86902-3 0  5447
2 00559 066.6129 210.3860 0084848 273.4513 085.6886 14.37343501679620
0 THOR ABLESTAR DEB
1 00559U 61015GR  13284.11722982  .00002508  00000-0  83333-3 0  5457
2 00559 066.6130 207.6130 0084801 272.7767 086.3631 14.37347959679776
0 THOR ABLESTAR DEB
1 00559U 61015GR  13285.16096128  .00002009  00000-0  67339-3 0  5464
2 00559 066.6132 204.8398 0084727 272.0865 087.0535 14.37352233679921
0 THOR ABLESTAR DEB
1 00559U 61015GR  13286.20468917  .00002114  00000-0  70710-3 0  5474
2 00559 066.6134 202.0667 0084689 271.3920 087.7480 14.37355658680071
0 THOR ABLESTAR DEB
1 00559U 61015GR  13287.38757804  .00002428  00000-0  80775-3 0  5481
2 00559 066.6136 198.9240 0084630 270.6303 088.5102 14.37360254680243
0 THOR ABLESTAR DEB
1 00559U 61015GR  13288.77920642  .00002308  00000-0  76910-3 0  5491
2 00559 066.6135 195.2268 0084539 269.7114 089.4299 14.37370955680447
0 THOR ABLESTAR DEB
1 00559U 61015GR  13289.82292153  .00002531  00000-0  84063-3 0  5505
2 00559 066.6133 192.4540 0084479 269.0220 090.1201 14.37375589680597
0 THOR ABLESTAR DEB
1 00559U 61015GR  13291.14495512  .00002543  00000-0  84437-3 0  5516
2 00559 066.6130 188.9417 0084357 268.1711 090.9727 14.37380944680780
0 THOR ABLESTAR DEB
1 00559U 61015GR  13293.16278617  .00002427  00000-0  80710-3 0  5527
2 00559 066.6124 183.5807 0084307 266.8453 092.2999 14.37389471681073
0 THOR ABLESTAR DEB
1 00559U 61015GR  13294.76312673  .00002564  00000-0  85080-3 0  5533
2 00559 066.6122 179.3287 0084246 265.8032 093.3438 14.37396361681302
0 THOR ABLESTAR DEB
1 00559U 61015GR  13295.80682258  .00002560  00000-0  84971-3 0  5543
2 00559 066.6123 176.5555 0084226 265.1130 094.0350 14.37400291681455
